{
  "type": "FeatureCollection",
  "features": [
    {
      "type": "Feature",
      "properties": { "浸水ランク": "3.0m以上5.0m未満", "note": "ダミーデータ" },
      "geometry": {
        "type": "Polygon",
        "coordinates": [
          [
            [132.73, 33.81],
            [132.79, 33.81],
            [132.79, 33.86],
            [132.73, 33.86],
            [132.73, 33.81]
          ]
        ]
      }
    },
    {
      "type": "Feature",
      "properties": { "浸水ランク": "5.0m以上10.0m未満", "note": "ダミーデータ" },
      "geometry": {
        "type": "Polygon",
        "coordinates": [
          [
            [132.745, 33.825],
            [132.765, 33.825],
            [132.765, 33.845],
            [132.745, 33.845],
            [132.745, 33.825]
          ]
        ]
      }
    }
  ]
}
