{
  "type": "FeatureCollection",
  "features": [
    {
      "type": "Feature",
      "properties": { "浸水ランク": "0.5m以上3.0m未満", "note": "ダミーデータ" },
      "geometry": {
        "type": "Polygon",
        "coordinates": [
          [
            [132.74, 33.82],
            [132.78, 33.82],
            [132.78, 33.85],
            [132.74, 33.85],
            [132.74, 33.82]
          ]
        ]
      }
    },
    {
      "type": "Feature",
      "properties": { "浸水ランク": "3.0m以上5.0m未満", "note": "ダミーデータ" },
      "geometry": {
        "type": "Polygon",
        "coordinates": [
          [
            [132.745, 33.825],
            [132.76, 33.825],
            [132.76, 33.84],
            [132.745, 33.84],
            [132.745, 33.825]
          ]
        ]
      }
    }
  ]
}
