{
  "type": "FeatureCollection",
  "features": [
    {
      "type": "Feature",
      "properties": { "A33_001": 1, "A33_002": 1, "A33_006": "松山市ダミー町（テスト）", "note": "ダミーデータ" },
      "geometry": {
        "type": "Polygon",
        "coordinates": [
          [
            [132.79, 33.845],
            [132.805, 33.845],
            [132.805, 33.86],
            [132.79, 33.86],
            [132.79, 33.845]
          ]
        ]
      }
    },
    {
      "type": "Feature",
      "properties": { "A33_001": 2, "A33_002": 2, "A33_006": "松山市ダミー町（テスト）", "note": "ダミーデータ" },
      "geometry": {
        "type": "Polygon",
        "coordinates": [
          [
            [132.795, 33.848],
            [132.80, 33.848],
            [132.80, 33.853],
            [132.795, 33.853],
            [132.795, 33.848]
          ]
        ]
      }
    },
    {
      "type": "Feature",
      "properties": { "A33_001": 3, "A33_002": 3, "A33_006": "松山市ダミー町（テスト）", "note": "ダミーデータ（指定前・基礎調査結果のテスト用）" },
      "geometry": {
        "type": "Polygon",
        "coordinates": [
          [
            [132.81, 33.86],
            [132.82, 33.86],
            [132.82, 33.87],
            [132.81, 33.87],
            [132.81, 33.86]
          ]
        ]
      }
    }
  ]
}
